{
 "generated_at": "2026-07-13T08:17:10Z",
 "sources": [
  {
   "name": "CelesTrak",
   "url": "https://celestrak.org/NORAD/elements/",
   "license": "frei verfügbar; Attribution. Ursprünglich USSPACECOM/Space-Track."
  },
  {
   "name": "GCAT (J. McDowell, planet4589.org)",
   "url": "https://planet4589.org/space/gcat/",
   "license": "CC-BY 4.0"
  }
 ],
 "satellites": [
  {
   "norad": 67371,
   "name": "UMBRA-12",
   "intl": "2026-004J",
   "group": "sar",
   "gcat": {
    "class": "B",
    "category": "IMG-R",
    "owner": "UMBRA",
    "state": "US"
   },
   "omm": {
    "OBJECT_NAME": "UMBRA-12",
    "OBJECT_ID": "2026-004J",
    "EPOCH": "2026-07-12T13:39:20.244384",
    "MEAN_MOTION": 14.89520811,
    "ECCENTRICITY": 0.0007581,
    "INCLINATION": 97.802,
    "RA_OF_ASC_NODE": 191.9903,
    "ARG_OF_PERICENTER": 59.8368,
    "MEAN_ANOMALY": 300.36,
    "EPHEMERIS_TYPE": 0,
    "CLASSIFICATION_TYPE": "U",
    "NORAD_CAT_ID": 67371,
    "ELEMENT_SET_NO": 999,
    "REV_AT_EPOCH": 2708,
    "BSTAR": 0.00023338,
    "MEAN_MOTION_DOT": 0.0000217,
    "MEAN_MOTION_DDOT": 0
   }
  },
  {
   "norad": 39160,
   "name": "VNREDSAT 1",
   "intl": "2013-021B",
   "group": "resource",
   "gcat": {
    "class": "C",
    "category": "IMG",
    "owner": "VAST",
    "state": "VN"
   },
   "omm": {
    "OBJECT_NAME": "VNREDSAT 1",
    "OBJECT_ID": "2013-021B",
    "EPOCH": "2026-07-12T20:10:23.722176",
    "MEAN_MOTION": 14.64881154,
    "ECCENTRICITY": 0.0001643,
    "INCLINATION": 97.9074,
    "RA_OF_ASC_NODE": 246.2705,
    "ARG_OF_PERICENTER": 80.8367,
    "MEAN_ANOMALY": 279.3023,
    "EPHEMERIS_TYPE": 0,
    "CLASSIFICATION_TYPE": "U",
    "NORAD_CAT_ID": 39160,
    "ELEMENT_SET_NO": 999,
    "REV_AT_EPOCH": 70404,
    "BSTAR": 0.0000077569,
    "MEAN_MOTION_DOT": -4e-8,
    "MEAN_MOTION_DDOT": 0
   }
  },
  {
   "norad": 32060,
   "name": "WORLDVIEW-1 (WV-1)",
   "intl": "2007-041A",
   "group": "resource",
   "gcat": {
    "class": "B",
    "category": "IMG",
    "owner": "DGLO",
    "state": "US"
   },
   "omm": {
    "OBJECT_NAME": "WORLDVIEW-1 (WV-1)",
    "OBJECT_ID": "2007-041A",
    "EPOCH": "2026-07-12T18:15:44.349408",
    "MEAN_MOTION": 15.24542474,
    "ECCENTRICITY": 0.00013,
    "INCLINATION": 97.39,
    "RA_OF_ASC_NODE": 313.1448,
    "ARG_OF_PERICENTER": 218.195,
    "MEAN_ANOMALY": 141.9196,
    "EPHEMERIS_TYPE": 0,
    "CLASSIFICATION_TYPE": "U",
    "NORAD_CAT_ID": 32060,
    "ELEMENT_SET_NO": 999,
    "REV_AT_EPOCH": 4677,
    "BSTAR": 0.00015166,
    "MEAN_MOTION_DOT": 0.00003661,
    "MEAN_MOTION_DDOT": 0
   }
  },
  {
   "norad": 35946,
   "name": "WORLDVIEW-2 (WV-2)",
   "intl": "2009-055A",
   "group": "resource",
   "gcat": {
    "class": "B",
    "category": "IMG",
    "owner": "DGLO",
    "state": "US"
   },
   "omm": {
    "OBJECT_NAME": "WORLDVIEW-2 (WV-2)",
    "OBJECT_ID": "2009-055A",
    "EPOCH": "2026-07-12T20:11:01.649184",
    "MEAN_MOTION": 14.37906539,
    "ECCENTRICITY": 0.0005213,
    "INCLINATION": 98.4757,
    "RA_OF_ASC_NODE": 266.9413,
    "ARG_OF_PERICENTER": 135.5583,
    "MEAN_ANOMALY": 224.6023,
    "EPHEMERIS_TYPE": 0,
    "CLASSIFICATION_TYPE": "U",
    "NORAD_CAT_ID": 35946,
    "ELEMENT_SET_NO": 999,
    "REV_AT_EPOCH": 87933,
    "BSTAR": 0.000025061,
    "MEAN_MOTION_DOT": 3.2e-7,
    "MEAN_MOTION_DDOT": 0
   }
  },
  {
   "norad": 40115,
   "name": "WORLDVIEW-3 (WV-3)",
   "intl": "2014-048A",
   "group": "resource",
   "gcat": {
    "class": "B",
    "category": "IMG",
    "owner": "DGLO",
    "state": "US"
   },
   "omm": {
    "OBJECT_NAME": "WORLDVIEW-3 (WV-3)",
    "OBJECT_ID": "2014-048A",
    "EPOCH": "2026-07-12T20:08:02.319072",
    "MEAN_MOTION": 14.85062139,
    "ECCENTRICITY": 0.0001118,
    "INCLINATION": 97.8558,
    "RA_OF_ASC_NODE": 268.3169,
    "ARG_OF_PERICENTER": 159.5544,
    "MEAN_ANOMALY": 200.5716,
    "EPHEMERIS_TYPE": 0,
    "CLASSIFICATION_TYPE": "U",
    "NORAD_CAT_ID": 40115,
    "ELEMENT_SET_NO": 999,
    "REV_AT_EPOCH": 64571,
    "BSTAR": 0.00005714,
    "MEAN_MOTION_DOT": 0.00000435,
    "MEAN_MOTION_DDOT": 0
   }
  },
  {
   "norad": 36834,
   "name": "YAOGAN-10",
   "intl": "2010-038A",
   "group": "resource",
   "gcat": {
    "class": null,
    "category": null,
    "owner": null,
    "state": null
   },
   "omm": {
    "OBJECT_NAME": "YAOGAN-10",
    "OBJECT_ID": "2010-038A",
    "EPOCH": "2026-07-12T21:26:10.279392",
    "MEAN_MOTION": 14.8542258,
    "ECCENTRICITY": 0.0001593,
    "INCLINATION": 97.8974,
    "RA_OF_ASC_NODE": 217.092,
    "ARG_OF_PERICENTER": 82.8356,
    "MEAN_ANOMALY": 37.959,
    "EPHEMERIS_TYPE": 0,
    "CLASSIFICATION_TYPE": "U",
    "NORAD_CAT_ID": 36834,
    "ELEMENT_SET_NO": 999,
    "REV_AT_EPOCH": 86102,
    "BSTAR": 0.000068297,
    "MEAN_MOTION_DOT": 0.00000534,
    "MEAN_MOTION_DDOT": 0
   }
  },
  {
   "norad": 40143,
   "name": "YAOGAN-21",
   "intl": "2014-053A",
   "group": "resource",
   "gcat": {
    "class": "D",
    "category": "IMG",
    "owner": "ZZB",
    "state": "CN"
   },
   "omm": {
    "OBJECT_NAME": "YAOGAN-21",
    "OBJECT_ID": "2014-053A",
    "EPOCH": "2026-07-12T20:35:15.571968",
    "MEAN_MOTION": 15.26736145,
    "ECCENTRICITY": 0.0008104,
    "INCLINATION": 97.1466,
    "RA_OF_ASC_NODE": 232.9952,
    "ARG_OF_PERICENTER": 16.2426,
    "MEAN_ANOMALY": 343.9071,
    "EPHEMERIS_TYPE": 0,
    "CLASSIFICATION_TYPE": "U",
    "NORAD_CAT_ID": 40143,
    "ELEMENT_SET_NO": 999,
    "REV_AT_EPOCH": 65887,
    "BSTAR": 0.00011595,
    "MEAN_MOTION_DOT": 0.00002981,
    "MEAN_MOTION_DDOT": 0
   }
  },
  {
   "norad": 40275,
   "name": "YAOGAN-22",
   "intl": "2014-063A",
   "group": "resource",
   "gcat": {
    "class": null,
    "category": null,
    "owner": null,
    "state": null
   },
   "omm": {
    "OBJECT_NAME": "YAOGAN-22",
    "OBJECT_ID": "2014-063A",
    "EPOCH": "2026-07-12T08:36:21.547872",
    "MEAN_MOTION": 13.15531629,
    "ECCENTRICITY": 0.00068152,
    "INCLINATION": 100.7757,
    "RA_OF_ASC_NODE": 345.0533,
    "ARG_OF_PERICENTER": 131.1733,
    "MEAN_ANOMALY": 228.9967,
    "EPHEMERIS_TYPE": 0,
    "CLASSIFICATION_TYPE": "U",
    "NORAD_CAT_ID": 40275,
    "ELEMENT_SET_NO": 999,
    "REV_AT_EPOCH": 56312,
    "BSTAR": 0.000025187707,
    "MEAN_MOTION_DOT": -3.7e-7,
    "MEAN_MOTION_DDOT": 0
   }
  },
  {
   "norad": 40310,
   "name": "YAOGAN-24",
   "intl": "2014-072A",
   "group": "resource",
   "gcat": {
    "class": "D",
    "category": "IMG",
    "owner": "ZZB",
    "state": "CN"
   },
   "omm": {
    "OBJECT_NAME": "YAOGAN-24",
    "OBJECT_ID": "2014-072A",
    "EPOCH": "2026-07-12T20:10:09.532704",
    "MEAN_MOTION": 14.76118382,
    "ECCENTRICITY": 0.0014404,
    "INCLINATION": 98.1512,
    "RA_OF_ASC_NODE": 331.3968,
    "ARG_OF_PERICENTER": 177.0076,
    "MEAN_ANOMALY": 183.1221,
    "EPHEMERIS_TYPE": 0,
    "CLASSIFICATION_TYPE": "U",
    "NORAD_CAT_ID": 40310,
    "ELEMENT_SET_NO": 999,
    "REV_AT_EPOCH": 62750,
    "BSTAR": 0.00010585,
    "MEAN_MOTION_DOT": 0.00000679,
    "MEAN_MOTION_DDOT": 0
   }
  },
  {
   "norad": 40362,
   "name": "YAOGAN-26",
   "intl": "2014-088A",
   "group": "resource",
   "gcat": {
    "class": "D",
    "category": "IMG",
    "owner": "ZZB",
    "state": "CN"
   },
   "omm": {
    "OBJECT_NAME": "YAOGAN-26",
    "OBJECT_ID": "2014-088A",
    "EPOCH": "2026-07-12T20:43:07.708224",
    "MEAN_MOTION": 15.483776,
    "ECCENTRICITY": 0.0002295,
    "INCLINATION": 97.0641,
    "RA_OF_ASC_NODE": 193.4884,
    "ARG_OF_PERICENTER": 353.1637,
    "MEAN_ANOMALY": 6.9582,
    "EPHEMERIS_TYPE": 0,
    "CLASSIFICATION_TYPE": "U",
    "NORAD_CAT_ID": 40362,
    "ELEMENT_SET_NO": 999,
    "REV_AT_EPOCH": 64167,
    "BSTAR": 0.00026575,
    "MEAN_MOTION_DOT": 0.0001399,
    "MEAN_MOTION_DDOT": 0
   }
  },
  {
   "norad": 40878,
   "name": "YAOGAN-27",
   "intl": "2015-040A",
   "group": "resource",
   "gcat": {
    "class": "D",
    "category": "IMG",
    "owner": "ZZB",
    "state": "CN"
   },
   "omm": {
    "OBJECT_NAME": "YAOGAN-27",
    "OBJECT_ID": "2015-040A",
    "EPOCH": "2026-07-12T21:00:54.484704",
    "MEAN_MOTION": 13.16070199,
    "ECCENTRICITY": 0.0008485,
    "INCLINATION": 100.1161,
    "RA_OF_ASC_NODE": 179.1444,
    "ARG_OF_PERICENTER": 150.314,
    "MEAN_ANOMALY": 209.8456,
    "EPHEMERIS_TYPE": 0,
    "CLASSIFICATION_TYPE": "U",
    "NORAD_CAT_ID": 40878,
    "ELEMENT_SET_NO": 999,
    "REV_AT_EPOCH": 52104,
    "BSTAR": -0.00044027,
    "MEAN_MOTION_DOT": -0.0000021,
    "MEAN_MOTION_DDOT": 0
   }
  },
  {
   "norad": 41026,
   "name": "YAOGAN-28",
   "intl": "2015-064A",
   "group": "resource",
   "gcat": {
    "class": "D",
    "category": "IMG",
    "owner": "ZZB",
    "state": "CN"
   },
   "omm": {
    "OBJECT_NAME": "YAOGAN-28",
    "OBJECT_ID": "2015-064A",
    "EPOCH": "2026-07-12T20:52:26.939136",
    "MEAN_MOTION": 15.2774176,
    "ECCENTRICITY": 0.0012081,
    "INCLINATION": 97.3101,
    "RA_OF_ASC_NODE": 331.6175,
    "ARG_OF_PERICENTER": 100.1443,
    "MEAN_ANOMALY": 260.116,
    "EPHEMERIS_TYPE": 0,
    "CLASSIFICATION_TYPE": "U",
    "NORAD_CAT_ID": 41026,
    "ELEMENT_SET_NO": 999,
    "REV_AT_EPOCH": 59460,
    "BSTAR": 0.000159,
    "MEAN_MOTION_DOT": 0.00004244,
    "MEAN_MOTION_DDOT": 0
   }
  },
  {
   "norad": 41038,
   "name": "YAOGAN-29",
   "intl": "2015-069A",
   "group": "resource",
   "gcat": {
    "class": "D",
    "category": "IMG-R",
    "owner": "ZZB",
    "state": "CN"
   },
   "omm": {
    "OBJECT_NAME": "YAOGAN-29",
    "OBJECT_ID": "2015-069A",
    "EPOCH": "2026-07-12T21:11:28.788576",
    "MEAN_MOTION": 14.83102954,
    "ECCENTRICITY": 0.0000924,
    "INCLINATION": 98.0026,
    "RA_OF_ASC_NODE": 222.5547,
    "ARG_OF_PERICENTER": 14.6424,
    "MEAN_ANOMALY": 345.4816,
    "EPHEMERIS_TYPE": 0,
    "CLASSIFICATION_TYPE": "U",
    "NORAD_CAT_ID": 41038,
    "ELEMENT_SET_NO": 999,
    "REV_AT_EPOCH": 57443,
    "BSTAR": -0.000038934,
    "MEAN_MOTION_DOT": -0.00000371,
    "MEAN_MOTION_DDOT": 0
   }
  }
 ]
}
